{
  "norad_id": 37210,
  "name": "BEIDOU-2 G4",
  "history": [
    {
      "epoch": "2026-03-28T20:40:46.684416",
      "apogee_km": 35820.33108275182,
      "perigee_km": 35753.32083701746,
      "latitude_deg": 2.2711145395342873,
      "longitude_deg": 143.71853824006394,
      "semi_major_axis_km": 42164.962959884644,
      "eccentricity": 0.00079462,
      "inclination_deg": 3.4481,
      "raan_deg": 69.3915,
      "arg_perigee_deg": 213.4556,
      "mean_anomaly_deg": 13.6278,
      "mean_motion_rev_day": 1.00270961
    },
    {
      "epoch": "2026-03-29T05:34:42.572352",
      "apogee_km": 35820.350480244946,
      "perigee_km": 35753.299757483524,
      "latitude_deg": 3.0248776855967328,
      "longitude_deg": 179.31396927987225,
      "semi_major_axis_km": 42164.96211886424,
      "eccentricity": 0.0007951,
      "inclination_deg": 3.449,
      "raan_deg": 69.3896,
      "arg_perigee_deg": 213.4927,
      "mean_anomaly_deg": 147.44,
      "mean_motion_rev_day": 1.00270964
    }
  ]
}